[{"OBJECT_NAME":"SAUDICOMSAT 4","OBJECT_ID":"2007-012L","EPOCH":"2026-03-09T21:03:47.196576","MEAN_MOTION":14.64379004,"ECCENTRICITY":0.00628756,"INCLINATION":98.3883,"RA_OF_ASC_NODE":39.4922,"ARG_OF_PERICENTER":207.7023,"MEAN_ANOMALY":152.0825,"EPHEMERIS_TYPE":0,"CLASSIFICATION_TYPE":"U","NORAD_CAT_ID":31127,"ELEMENT_SET_NO":999,"REV_AT_EPOCH":675,"BSTAR":0.00016117094,"MEAN_MOTION_DOT":8.23e-6,"MEAN_MOTION_DDOT":0},{"OBJECT_NAME":"CZ-6A DEB","OBJECT_ID":"2022-151QG","EPOCH":"2026-03-09T16:18:22.929984","MEAN_MOTION":14.67394959,"ECCENTRICITY":0.00710131,"INCLINATION":98.6362,"RA_OF_ASC_NODE":127.2188,"ARG_OF_PERICENTER":238.2574,"MEAN_ANOMALY":121.1695,"EPHEMERIS_TYPE":0,"CLASSIFICATION_TYPE":"U","NORAD_CAT_ID":54895,"ELEMENT_SET_NO":999,"REV_AT_EPOCH":17283,"BSTAR":0.0024591402,"MEAN_MOTION_DOT":0.00014408,"MEAN_MOTION_DDOT":0}]
